P/2012 F2 (PANSTARRS),e,14.7015,226.9858,33.3223,6.335484,0.0618065,0.54111975,214.5411,10/10.0/2022,2000,g 12.0,4.0
# From MPEC 2022-ED3
P/2012 G1 (PANSTARRS),e,12.1729,283.2760,266.1067,4.164900,0.1159570,0.32942842,85.7913,10/10.0/2022,2000,g 15.0,4.0
# From MPC 80898
P/2012 K3 (Gibbs),e,13.1904,125.8183,172.2404,3.628091,0.1426221,0.42267468,164.0018,10/10.0/2022,2000,g 15.0,4.0
# From MPC 88326
P/2012 NJ (La Sagra),e,84.5928,315.5816,338.3822,8.465570,0.0400147,0.84680192,150.8113,10/10.0/2022,2000,g 14.5,4.0
# From MPC 81470
P/2012 O1 (McNaught),e,7.4275,91.9379,238.3172,3.541575,0.1478800,0.59436214,194.7686,10/10.0/2022,2000,g 17.5,4.0
# From MPC 80899
P/2012 O2 (McNaught),e,24.4722,120.6843,183.4746,3.625934,0.1427494,0.53213197,178.8786,10/10.0/2022,2000,g 17.0,4.0
# From MPC 82320
P/2012 T2 (PANSTARRS),e,12.5664,73.7156,310.7075,5.729050,0.0718754,0.16224087,247.9986,10/10.0/2022,2000,g 10.0,4.0
# From MPC 80900
P/2012 T3 (PANSTARRS),e,9.5598,114.3760,195.5338,6.151142,0.0646056,0.61681859,246.0853,10/10.0/2022,2000,g 15.0,4.0
# From MPC 82720
P/2012 U2 (PANSTARRS),e,10.7595,185.3248,228.2491,7.132892,0.0517375,0.49977746,187.1100,10/10.0/2022,2000,g 12.5,4.0
# From MPC 84024
P/2012 US27 (Siding Spring),e,39.3668,49.2032,0.8192,5.165142,0.0839616,0.64819655,297.6764,10/10.0/2022,2000,g 13.5,4.0
# From MPC 82721
P/2012 WA34 (Lemmon-PANSTARRS),e,6.0806,93.5698,356.5251,4.684283,0.0972164,0.34422106,333.6206,10/10.0/2022,2000,g 13.5,4.0
# From MPC 82721
P/2013 AL76 (Catalina),e,144.8657,146.0068,27.0448,6.498924,0.0594897,0.68609679,214.0875,10/10.0/2022,2000,g 16.0,4.0
# From MPEC 2022-K19
P/2013 EW90,e,31.7919,160.2925,346.0898,4.113009,0.1181584,0.19465444,71.2177,10/10.0/2022,2000,g 14.3,4.0
# From MPC 91612
P/2013 G1 (Kowalski),e,5.4587,221.3200,51.5400,6.896431,0.0544211,0.51143359,175.5708,10/10.0/2022,2000,g 11.0,4.0
# From MPC 84025
P/2013 G4 (PANSTARRS),e,5.9161,339.6360,214.6343,4.439053,0.1053825,0.40927359,11.8747,10/10.0/2022,2000,g 15.0,4.0
# From MPC 91613
P/2013 J2 (McNaught),e,15.5140,289.3580,37.8552,6.222977,0.0634902,0.65743860,211.2172,10/10.0/2022,2000,g 13.0,4.0
# From MPC 86229
P/2013 N3 (PANSTARRS),e,2.1738,17.4681,323.9667,7.394569,0.0490156,0.59312546,154.6799,10/10.0/2022,2000,g 13.0,4.0
# From MPC 85834
P/2013 N5 (PANSTARRS),e,23.4612,187.1552,176.9371,6.797129,0.0556181,0.73251771,188.0830,10/10.0/2022,2000,g 17.0,4.0
# From MPC 85834
P/2013 P1 (PANSTARRS),e,18.7242,160.5945,138.2476,8.580863,0.0392110,0.60480268,137.6488,10/10.0/2022,2000,g 12.0,4.0
# From MPC 94671
P/2013 R3 (Catalina-PANSTARRS),e,0.8648,341.9762,11.2916,3.032261,0.1866613,0.27557290,261.5951,10/10.0/2022,2000,g 14.0,4.0
# From unp
P/2013 R3-A (Catalina-PANSTARRS),e,0.8642,341.9430,11.3306,3.032118,0.1866745,0.27554254,261.6363,10/10.0/2022,2000,g  9.0,4.0
# From MPEC 2015-M77
P/2013 R3-B (Catalina-PANSTARRS),e,0.8654,341.9989,11.2654,3.032338,0.1866541,0.27558783,261.5730,10/10.0/2022,2000,g  9.0,4.0
# From MPC 85835
P/2013 T1 (PANSTARRS),e,24.3031,10.0803,346.1590,5.857258,0.0695285,0.62429116,232.9622,10/10.0/2022,2000,g 16.5,4.0
# From MPC 86643
P/2013 T2 (Schwartz),e,9.4576,0.8004,345.5753,3.491661,0.1510623,0.50112637,157.7196,10/10.0/2022,2000,g 16.0,4.0
# From MPC 91613
P/2013 W1 (PANSTARRS),e,4.6963,117.8413,1.2350,3.487779,0.1513145,0.59282901,114.9668,10/10.0/2022,2000,g 17.5,4.0
# From MPC101095
P/2013 YG46 (Spacewatch),e,7.8575,48.8363,242.5970,3.273902,0.1663817,0.45464685,345.3114,10/10.0/2022,2000,g 10.0,4.0
# From MPC 89728
P/2014 A2 (Hill),e,24.5429,106.6317,356.1493,5.927357,0.0682987,0.64558227,224.5007,10/10.0/2022,2000,g 15.0,4.0
# From MPC 92981
P/2014 A3 (PANSTARRS),e,13.7157,229.9766,214.0908,4.609266,0.0995993,0.24673306,340.6685,10/10.0/2022,2000,g 12.0,4.0
# From MPC102095
P/2014 C1 (TOTAS),e,2.6931,167.8151,23.9047,3.033175,0.1865769,0.45079969,237.5666,10/10.0/2022,2000,g 15.5,4.0
# From MPEC 2022-TA0
C/2014 F3 (Sheppard-Trujillo),e,6.5490,326.4608,4.3967,14.64225,0.0175911,0.61028403,8.7713,10/10.0/2022,2000,g  6.0,4.0
# From MPC 98560
P/2014 L2 (NEOWISE),e,5.1992,149.3468,182.7119,6.304982,0.0622556,0.64801591,186.9014,10/10.0/2022,2000,g 12.0,4.0
# From MPC 90769
P/2014 L3 (Hill),e,6.2692,115.4904,178.7030,8.177189,0.0421500,0.77287113,127.4311,10/10.0/2022,2000,g 16.0,4.0
# From MPC 91614
P/2014 M4 (PANSTARRS),e,3.3422,263.1940,148.0241,5.869039,0.0693192,0.59545776,197.0296,10/10.0/2022,2000,g 15.0,4.0
# From MPEC 2022-K19
P/2014 MG4 (Spacewatch-PANSTARRS),e,9.3675,311.7296,299.0512,5.013198,0.0878075,0.25897509,298.6601,10/10.0/2022,2000,g  9.5,4.0
# From MPC 98560
P/2014 O3 (PANSTARRS),e,7.7974,87.6417,204.7740,7.575236,0.0472726,0.38468199,146.3648,10/10.0/2022,2000,g 10.5,4.0
# From MPEC 2022-ST7
C/2014 OG392 (PANSTARRS),e,9.0329,145.7996,254.3037,12.25091,0.0229854,0.18617962,7.0821,10/10.0/2022,2000,g  6.0,4.0
# From MPC 91616
P/2014 U4 (PANSTARRS),e,6.4292,11.8844,347.8237,3.508455,0.1499789,0.46489585,90.4915,10/10.0/2022,2000,g 18.0,4.0
# From MPEC 2022-TA0
C/2014 UN271 (Bernardinelli-Bernstein),h,01/23.0388/2031,95.4301,189.8976,326.2652,1.000526,10.943946,2000,2.5,3.2
# From MPC 95211
P/2014 V1 (PANSTARRS),e,22.5266,166.1999,177.6460,5.479594,0.0768390,0.53447771,216.1342,10/10.0/2022,2000,g 14.0,4.0
# From MPC 93586
P/2014 W1 (PANSTARRS),e,8.8363,246.2348,152.1446,4.465925,0.1044328,0.38926792,314.5401,10/10.0/2022,2000,g 15.5,4.0
# From MPC105542
P/2014 W4 (PANSTARRS),e,15.2827,33.3857,67.6122,6.589552,0.0582667,0.35314279,144.2500,10/10.0/2022,2000,g 11.0,4.0
# From MPC 94281
P/2014 X1 (Elenin),e,26.0431,61.5571,33.8760,6.205387,0.0637604,0.70942447,181.0314,10/10.0/2022,2000,g 15.0,4.0
# From MPC 92275
P/2015 A3 (PANSTARRS),e,172.5396,277.3024,249.4316,7.814479,0.0451184,0.85042949,125.9648,10/10.0/2022,2000,g 20.0,4.0
# From MPC 99270
P/2015 B1 (PANSTARRS),e,18.0507,352.9297,188.8855,9.491918,0.0337034,0.36661383,87.1881,10/10.0/2022,2000,g  8.5,4.0
# From MPC109141
P/2015 B4 (Lemmon-PANSTARRS),e,1.7628,266.0549,227.2806,8.518409,0.0396430,0.56043558,111.2649,10/10.0/2022,2000,g 11.0,4.0
# From MPC101096
P/2015 C1 (TOTAS-Gibbs),e,13.9142,348.7948,178.1284,6.575780,0.0584498,0.56078679,159.4011,10/10.0/2022,2000,g 12.5,4.0
# From MPC109141
P/2015 D5 (Kowalski),e,20.5299,74.0698,39.6810,8.955420,0.0367769,0.48974239,114.5342,10/10.0/2022,2000,g  9.0,4.0
# From MPC 96866
P/2015 D6 (Lemmon-PANSTARRS),e,20.2049,45.8750,125.0305,7.136946,0.0516934,0.36129908,137.6207,10/10.0/2022,2000,g 10.5,4.0
# From MPEC 2021-P47
P/2015 HG16 (PANSTARRS),e,18.8290,57.5847,47.6334,4.773178,0.0945132,0.35223362,289.9421,10/10.0/2022,2000,g 12.5,4.0
# From MPC 95213
P/2015 K5 (PANSTARRS),e,39.9438,134.2064,106.3318,6.725977,0.0565029,0.55203157,151.8663,10/10.0/2022,2000,g 13.5,4.0
# From MPC107684
P/2015 M2 (PANSTARRS),e,3.9699,86.5844,225.9479,7.241803,0.0505748,0.17999739,130.6627,10/10.0/2022,2000,g  8.5,4.0
# From MPEC 2021-P47
C/2015 O1 (PANSTARRS),h,02/20.1911/2018,127.1844,299.8326,89.5503,1.001465,3.721899,2000,6.5,4.0
# From MPC 99819
P/2015 P4 (PANSTARRS),e,8.7175,104.6915,280.6518,6.046855,0.0662842,0.58566624,162.5138,10/10.0/2022,2000,g 14.0,4.0
# From MPEC 2022-K19
P/2015 PD229 (Cameron-ISON),e,2.0253,342.6531,352.6701,7.191692,0.0511043,0.32770181,133.3892,10/10.0/2022,2000,g 11.5,2.0
# From MPC 96867
P/2015 Q2 (Pimentel),e,146.5448,228.5224,244.6329,7.353229,0.0494296,0.75059848,128.0230,10/10.0/2022,2000,g 15.5,4.0
# From MPC 98562
P/2015 R1 (PANSTARRS),e,22.6963,48.3347,300.5667,5.880404,0.0691183,0.63433593,183.7295,10/10.0/2022,2000,g 14.0,4.0
# From MPC 95734
P/2015 R2 (PANSTARRS),e,15.4853,168.5968,149.8470,4.485769,0.1037406,0.45281239,277.2797,10/10.0/2022,2000,g 14.5,4.0
# From MPC 96280
P/2015 T3 (PANSTARRS),e,13.0937,120.5019,178.6330,4.326181,0.1095335,0.50818108,359.9227,12/21.0/2014,2000,g 14.0,4.0
# From MPC102953
P/2015 TO19 (Lemmon-PANSTARRS),e,6.5005,321.6323,89.1661,4.552408,0.1014711,0.35923746,244.3013,10/10.0/2022,2000,g 14.0,4.0
# From MPC110080
P/2015 TP200 (LINEAR),e,8.7806,7.0198,82.4489,7.265536,0.0503272,0.53604751,109.3396,10/10.0/2022,2000,g 11.0,4.0
# From MPC115881
C/2015 V1 (PANSTARRS),e,139.2306,197.1407,179.6915,2296,0.0000090,0.99813566,0.0000,12/16.4371/2017,2000,g  6.5,4.0
# From MPC101098
P/2015 W2 (Catalina),e,11.6094,294.1642,117.5374,7.290996,0.0500638,0.63514328,128.3226,10/10.0/2022,2000,g 13.0,4.0
# From MPEC 2022-OB6
C/2015 XY1 (Lemmon),e,148.8515,281.5792,196.1419,300267,0.0000000,0.99997361,0.0000,04/25.6864/2018,2000,g  5.5,4.0
# From MPEC 2022-OB6
P/2015 X3 (PANSTARRS),e,24.4006,77.2746,306.7423,5.003865,0.0880533,0.43996358,230.3253,10/10.0/2022,2000,g 15.0,4.0
# From MPC119995
C/2015 X5 (PANSTARRS),e,124.3172,122.3122,27.5487,12297,0.0000007,0.99944746,0.0000,12/27.2947/2017,2000,g  7.5,4.0
# From MPC115881
P/2015 X6 (PANSTARRS),e,4.5647,106.9343,329.7847,2.752574,0.2158220,0.17306209,156.0179,10/10.0/2022,2000,g 16.0,4.0
# From MPEC 2022-O08
C/2016 A1 (PANSTARRS),e,121.2136,128.1739,10.0982,8764,0.0000012,0.99939335,0.0000,11/20.8668/2017,2000,g  6.0,4.0
# From MPC100282
P/2016 A2 (Christensen),e,26.4034,291.6177,141.2925,4.753539,0.0950996,0.27080857,254.4984,10/10.0/2022,2000,g 11.5,4.0
# From MPEC 2022-OB6
P/2016 A3 (PANSTARRS),e,8.5107,187.2271,340.9377,7.881172,0.0445469,0.38604782,88.7722,10/10.0/2022,2000,g 10.0,4.0
# From MPC102098
P/2016 A7 (PANSTARRS),e,16.6030,221.4972,352.5426,5.034879,0.0872410,0.56440863,211.4776,10/10.0/2022,2000,g 16.0,4.0
# From MPC109143
P/2016 BA14 (PANSTARRS),e,18.8969,180.5132,351.9602,3.026430,0.1872009,0.66470227,89.8251,10/10.0/2022,2000,g 21.0,4.0
# From MPEC 2021-P47
P/2016 G1 (PANSTARRS),e,10.9711,204.0197,111.1373,2.582595,0.2374759,0.21081019,134.6926,10/10.0/2022,2000,g 14.0,4.0
# From MPEC 2017-D91
P/2016 J1-A (PANSTARRS),e,14.3289,199.8108,47.0270,3.172083,0.1744565,0.22767533,40.3289,10/10.0/2022,2000,g 16.5,4.0
# From MPEC 2017-A77
P/2016 J1-B (PANSTARRS),e,14.3317,199.8157,46.9182,3.171717,0.1744867,0.22752632,40.4738,10/10.0/2022,2000,g 17.0,4.0
